GLOBALSTAR M045         
1 25676U 99019A   25041.92925812 -.00000048  00000+0  40368-3 0  9990
2 25676  51.9985 305.1338 0000780  32.1103  49.7190 12.27056229177891
GLOBALSTAR M019         
1 25677U 99019B   25041.81241928  .00000060  00000+0  15662-2 0  9999
2 25677  51.9885  66.9351 0001287  80.8859  89.8904 12.13873871169792
GLOBALSTAR M044         
1 25678U 99019C   25041.65115321 -.00000127  00000+0 -60257-3 0  9996
2 25678  51.9999   2.9148 0006362 154.3852  16.6538 11.90247215156251
GLOBALSTAR M042         
1 25679U 99019D   25041.93662181 -.00000077  00000+0  14404-3 0  9995
2 25679  52.0025  47.3605 0002871  44.0974 345.7939 12.22078138169826
GLOBALSTAR M025         
1 25770U 99031A   25041.40420537 -.00000047  00000+0  64520-3 0  9991
2 25770  51.9814  92.9730 0001042 274.7676  98.1233 11.22559031467470
GLOBALSTAR M049         
1 25771U 99031B   25041.52566828 -.00000089  00000+0 -80767-3 0  9997
2 25771  51.9872 121.0901 0003994 155.2679 204.8309 11.12114890103334
GLOBALSTAR M047         
1 25772U 99031C   25041.60445945 -.00000075  00000+0 -15054-3 0  9995
2 25772  51.9825 129.9751 0016416  48.5596 311.6617 11.31925587456770
GLOBALSTAR M052         
1 25773U 99031D   25041.84857015 -.00000093  00000+0 -90482-3 0  9995
2 25773  51.9830 230.8120 0001980 351.8114 146.8906 11.15057657464410
